{"type": "FeatureCollection", "features": [ {"type": "Feature", "properties": {"norad_id": 37216, "name": "COSMO-SKYMED 4", "group": "resource", "lat": -12.230909834043056, "lon": -3.3452709950000785, "alt_km": 627.3712747958971, "timestamp": "2025-12-23T05:02:11.680390+00:00", "meta": {"OBJECT_NAME": "COSMO-SKYMED 4", "OBJECT_ID": "2010-060A", "EPOCH": "2025-12-22T23:18:40.833216", "MEAN_MOTION": 14.82155777, "ECCENTRICITY": 0.0001391, "INCLINATION": 97.8799, "RA_OF_ASC_NODE": 178.1403, "ARG_OF_PERICENTER": 80.3637, "MEAN_ANOMALY": 279.7733, "EPHEMERIS_TYPE": 0, "CLASSIFICATION_TYPE": "U", "NORAD_CAT_ID": 37216, "ELEMENT_SET_NO": 999, "REV_AT_EPOCH": 81846, "BSTAR": 3.7931477e-05, "MEAN_MOTION_DOT": 2.5e-06, "MEAN_MOTION_DDOT": 0}, "tle": {"line1": "1 37216U 10060A   25356.97130594  .00000250  00000+0  37931-4 0  9998", "line2": "2 37216  97.8799 178.1403 0001391  80.3637 279.7733 14.82155777818467"}}, "geometry": {"type": "Point", "coordinates": [-3.3452709950000785, -12.230909834043056]}}, {"type": "Feature", "properties": {"norad_id": 37387, "name": "RESOURCESAT-2", "group": "resource", "lat": 38.0925244571534, "lon": 53.75051936190983, "alt_km": 813.1894788925019, "timestamp": "2025-12-23T05:02:11.680401+00:00", "meta": {"OBJECT_NAME": "RESOURCESAT-2", "OBJECT_ID": "2011-015A", "EPOCH": "2025-12-22T22:05:56.168736", "MEAN_MOTION": 14.21601137, "ECCENTRICITY": 0.00059454, "INCLINATION": 98.7862, "RA_OF_ASC_NODE": 60.4263, "ARG_OF_PERICENTER": 14.8702, "MEAN_ANOMALY": 345.2649, "EPHEMERIS_TYPE": 0, "CLASSIFICATION_TYPE": "U", "NORAD_CAT_ID": 37387, "ELEMENT_SET_NO": 999, "REV_AT_EPOCH": 76113, "BSTAR": 8.742794e-05, "MEAN_MOTION_DOT": 1.47e-06, "MEAN_MOTION_DDOT": 0}, "tle": {"line1": "1 37387U 11015A   25356.92078899  .00000147  00000+0  87428-4 0  9993", "line2": "2 37387  98.7862  60.4263 0005945  14.8702 345.2649 14.21601137761133"}}, "geometry": {"type": "Point", "coordinates": [53.75051936190983, 38.0925244571534]}}, {"type": "Feature", "properties": {"norad_id": 37781, "name": "HAIYANG-2A", "group": "resource", "lat": -78.22109386457419, "lon": 50.073206138134076, "alt_km": 976.3561600437488, "timestamp": "2025-12-23T05:02:11.680411+00:00", "meta": {"OBJECT_NAME": "HAIYANG-2A", "OBJECT_ID": "2011-043A", "EPOCH": "2025-12-23T00:12:46.980576", "MEAN_MOTION": 13.78835166, "ECCENTRICITY": 0.00015921, "INCLINATION": 99.3372, "RA_OF_ASC_NODE": 357.7849, "ARG_OF_PERICENTER": 70.35, "MEAN_ANOMALY": 289.7823, "EPHEMERIS_TYPE": 0, "CLASSIFICATION_TYPE": "U", "NORAD_CAT_ID": 37781, "ELEMENT_SET_NO": 999, "REV_AT_EPOCH": 72240, "BSTAR": -0.00020098783, "MEAN_MOTION_DOT": -2.49e-06, "MEAN_MOTION_DDOT": 0}, "tle": {"line1": "1 37781U 11043A   25357.00887709 -.00000249  00000+0 -20099-3 0  9995", "line2": "2 37781  99.3372 357.7849 0001592  70.3500 289.7823 13.78835166722408"}}, "geometry": {"type": "Point", "coordinates": [50.073206138134076, -78.22109386457419]}}, {"type": "Feature", "properties": {"norad_id": 37791, "name": "RASAT", "group": "resource", "lat": 33.26988218748804, "lon": -88.34941059410635, "alt_km": 671.5002536728243, "timestamp": "2025-12-23T05:02:11.680421+00:00", "meta": {"OBJECT_NAME": "RASAT", "OBJECT_ID": "2011-044D", "EPOCH": "2025-12-23T00:15:03.414816", "MEAN_MOTION": 14.67922594, "ECCENTRICITY": 0.00214188, "INCLINATION": 98.0649, "RA_OF_ASC_NODE": 86.1161, "ARG_OF_PERICENTER": 34.0309, "MEAN_ANOMALY": 138.8935, "EPHEMERIS_TYPE": 0, "CLASSIFICATION_TYPE": "U", "NORAD_CAT_ID": 37791, "ELEMENT_SET_NO": 999, "REV_AT_EPOCH": 76733, "BSTAR": 0.00010871276, "MEAN_MOTION_DOT": 5.75e-06, "MEAN_MOTION_DDOT": 0}, "tle": {"line1": "1 37791U 11044D   25357.01045619  .00000575  00000+0  10871-3 0  9991", "line2": "2 37791  98.0649  86.1161 0021418  34.0309 138.8935 14.67922594767335"}}, "geometry": {"type": "Point", "coordinates": [-88.34941059410635, 33.26988218748804]}}, {"type": "Feature", "properties": {"norad_id": 37841, "name": "SRMSAT", "group": "resource", "lat": 18.306166321188815, "lon": 158.95755660041718, "alt_km": 843.0774794593999, "timestamp": "2025-12-23T05:02:11.680431+00:00", "meta": {"OBJECT_NAME": "SRMSAT", "OBJECT_ID": "2011-058D", "EPOCH": "2025-12-22T20:49:16.932576", "MEAN_MOTION": 14.11514738, "ECCENTRICITY": 0.00119867, "INCLINATION": 19.9728, "RA_OF_ASC_NODE": 46.656, "ARG_OF_PERICENTER": 64.3744, "MEAN_ANOMALY": 105.432, "EPHEMERIS_TYPE": 0, "CLASSIFICATION_TYPE": "U", "NORAD_CAT_ID": 37841, "ELEMENT_SET_NO": 999, "REV_AT_EPOCH": 73287, "BSTAR": 8.3000233e-05, "MEAN_MOTION_DOT": 4.18e-06, "MEAN_MOTION_DDOT": 0}, "tle": {"line1": "1 37841U 11058D   25356.86755709  .00000418  00000+0  83000-4 0  9993", "line2": "2 37841  19.9728  46.6560 0011986  64.3744 105.4320 14.11514738732878"}}, "geometry": {"type": "Point", "coordinates": [158.95755660041718, 18.306166321188815]}}, {"type": "Feature", "properties": {"norad_id": 38012, "name": "PLEIADES 1A", "group": "resource", "lat": -50.07156817058773, "lon": 79.71455847679393, "alt_km": 705.1354758235975, "timestamp": "2025-12-23T05:02:11.680441+00:00", "meta": {"OBJECT_NAME": "PLEIADES 1A", "OBJECT_ID": "2011-076F", "EPOCH": "2025-12-22T23:12:24.055776", "MEAN_MOTION": 14.58569641, "ECCENTRICITY": 0.00011156, "INCLINATION": 98.1815, "RA_OF_ASC_NODE": 69.5777, "ARG_OF_PERICENTER": 74.2854, "MEAN_ANOMALY": 40.2851, "EPHEMERIS_TYPE": 0, "CLASSIFICATION_TYPE": "U", "NORAD_CAT_ID": 38012, "ELEMENT_SET_NO": 999, "REV_AT_EPOCH": 74630, "BSTAR": 7.1114465e-05, "MEAN_MOTION_DOT": 2.85e-06, "MEAN_MOTION_DDOT": 0}, "tle": {"line1": "1 38012U 11076F   25356.96694509  .00000285  00000+0  71114-4 0  9990", "line2": "2 38012  98.1815  69.5777 0001115  74.2854  40.2851 14.58569641746306"}}, "geometry": {"type": "Point", "coordinates": [79.71455847679393, -50.07156817058773]}}, {"type": "Feature", "properties": {"norad_id": 38038, "name": "ZIYUAN 1-02C (ZY 1-02C)", "group": "resource", "lat": 15.777029728470739, "lon": -114.56769222626072, "alt_km": 762.4850123286287, "timestamp": "2025-12-23T05:02:11.680451+00:00", "meta": {"OBJECT_NAME": "ZIYUAN 1-02C (ZY 1-02C)", "OBJECT_ID": "2011-079A", "EPOCH": "2025-12-22T23:50:27.227616", "MEAN_MOTION": 14.38022076, "ECCENTRICITY": 0.000752, "INCLINATION": 98.4323, "RA_OF_ASC_NODE": 62.8178, "ARG_OF_PERICENTER": 111.6599, "MEAN_ANOMALY": 12.1278, "EPHEMERIS_TYPE": 0, "CLASSIFICATION_TYPE": "U", "NORAD_CAT_ID": 38038, "ELEMENT_SET_NO": 999, "REV_AT_EPOCH": 73388, "BSTAR": 0.00011496369, "MEAN_MOTION_DOT": 3.05e-06, "MEAN_MOTION_DDOT": 0}, "tle": {"line1": "1 38038U 11079A   25356.99337069  .00000305  00000+0  11496-3 0  9998", "line2": "2 38038  98.4323  62.8178 0007520 111.6599  12.1278 14.38022076733884"}}, "geometry": {"type": "Point", "coordinates": [-114.56769222626072, 15.777029728470739]}}, {"type": "Feature", "properties": {"norad_id": 38338, "name": "ARIRANG-3 (KOMPSAT-3)", "group": "resource", "lat": -34.11049775869414, "lon": -42.423104743986535, "alt_km": 690.7196576219367, "timestamp": "2025-12-23T05:02:11.680462+00:00", "meta": {"OBJECT_NAME": "ARIRANG-3 (KOMPSAT-3)", "OBJECT_ID": "2012-025B", "EPOCH": "2025-12-22T22:37:21.465120", "MEAN_MOTION": 14.61725451, "ECCENTRICITY": 0.00047801, "INCLINATION": 98.3339, "RA_OF_ASC_NODE": 311.6096, "ARG_OF_PERICENTER": 302.5188, "MEAN_ANOMALY": 57.5551, "EPHEMERIS_TYPE": 0, "CLASSIFICATION_TYPE": "U", "NORAD_CAT_ID": 38338, "ELEMENT_SET_NO": 999, "REV_AT_EPOCH": 72559, "BSTAR": 0.00012034151, "MEAN_MOTION_DOT": 5.51e-06, "MEAN_MOTION_DDOT": 0}, "tle": {"line1": "1 38338U 12025B   25356.94260955  .00000551  00000+0  12034-3 0  9999", "line2": "2 38338  98.3339 311.6096 0004780 302.5188  57.5551 14.61725451725596"}}, "geometry": {"type": "Point", "coordinates": [-42.423104743986535, -34.11049775869414]}}, {"type": "Feature", "properties": {"norad_id": 38709, "name": "EXACTVIEW-1 (ADS-1B)", "group": "resource", "lat": 18.11018811028072, "lon": 102.86056314756188, "alt_km": 804.923166834893, "timestamp": "2025-12-23T05:02:11.680472+00:00", "meta": {"OBJECT_NAME": "EXACTVIEW-1 (ADS-1B)", "OBJECT_ID": "2012-039C", "EPOCH": "2025-12-22T20:31:28.484256", "MEAN_MOTION": 14.24911909, "ECCENTRICITY": 0.00101785, "INCLINATION": 98.9638, "RA_OF_ASC_NODE": 105.4575, "ARG_OF_PERICENTER": 324.0491, "MEAN_ANOMALY": 36.0002, "EPHEMERIS_TYPE": 0, "CLASSIFICATION_TYPE": "U", "NORAD_CAT_ID": 38709, "ELEMENT_SET_NO": 999, "REV_AT_EPOCH": 69759, "BSTAR": 8.2108934e-05, "MEAN_MOTION_DOT": 1.45e-06, "MEAN_MOTION_DDOT": 0}, "tle": {"line1": "1 38709U 12039C   25356.85519079  .00000145  00000+0  82109-4 0  9990", "line2": "2 38709  98.9638 105.4575 0010178 324.0491  36.0002 14.24911909697596"}}, "geometry": {"type": "Point", "coordinates": [102.86056314756188, 18.11018811028072]}}, {"type": "Feature", "properties": {"norad_id": 38755, "name": "SPOT 6", "group": "resource", "lat": -52.14223551279086, "lon": -128.83109458006993, "alt_km": 705.6834601184528, "timestamp": "2025-12-23T05:02:11.680482+00:00", "meta": {"OBJECT_NAME": "SPOT 6", "OBJECT_ID": "2012-047A", "EPOCH": "2025-12-22T23:01:58.895616", "MEAN_MOTION": 14.58539862, "ECCENTRICITY": 0.00013017, "INCLINATION": 98.1561, "RA_OF_ASC_NODE": 61.5557, "ARG_OF_PERICENTER": 78.6095, "MEAN_ANOMALY": 281.525, "EPHEMERIS_TYPE": 0, "CLASSIFICATION_TYPE": "U", "NORAD_CAT_ID": 38755, "ELEMENT_SET_NO": 999, "REV_AT_EPOCH": 70736, "BSTAR": 4.9074439e-05, "MEAN_MOTION_DOT": 1.83e-06, "MEAN_MOTION_DDOT": 0}, "tle": {"line1": "1 38755U 12047A   25356.95970944  .00000183  00000+0  49074-4 0  9999", "line2": "2 38755  98.1561  61.5557 0001301  78.6095 281.5250 14.58539862707366"}}, "geometry": {"type": "Point", "coordinates": [-128.83109458006993, -52.14223551279086]}}]}